{
  "type": "FeatureCollection",
  "features": [
    {
      "type": "Feature",
      "properties": {
        "Tipo": "Falla de rumbo dextral",
        "NombreFalla": "Falla de Espíritu Santo"
      },
      "geometry": {
        "type": "LineString",
        "coordinates": [
          [
            -75.17718799799991,
            7.725222714748396
          ],
          [
            -75.19512151999993,
            7.670744761750124
          ],
          [
            -75.20383034799994,
            7.627628927751506
          ],
          [
            -75.21154608299992,
            7.5870706907527765
          ],
          [
            -75.21625741499992,
            7.578504631753072
          ],
          [
            -75.22589423199992,
            7.547167129754028
          ],
          [
            -75.23167632299993,
            7.53353281875448
          ],
          [
            -75.24169272099994,
            7.512097916755157
          ],
          [
            -75.24693268499993,
            7.501035769755492
          ],
          [
            -75.25424726199992,
            7.485327196756003
          ],
          [
            -75.26130906299994,
            7.473129225756416
          ],
          [
            -75.26636743299991,
            7.464418322756689
          ],
          [
            -75.27276456099992,
            7.453810956757034
          ],
          [
            -75.2814440809999,
            7.443271954757346
          ],
          [
            -75.28891792899992,
            7.429819028757758
          ],
          [
            -75.2921727399999,
            7.416855420758222
          ],
          [
            -75.29864387399994,
            7.4074259827584825
          ],
          [
            -75.30799892099992,
            7.393658597758927
          ],
          [
            -75.31737505199993,
            7.378340590759402
          ],
          [
            -75.32801542399994,
            7.3609557107599946
          ],
          [
            -75.33853092699991,
            7.348785671760374
          ],
          [
            -75.35712680799992,
            7.3277256087610505
          ],
          [
            -75.3760433779999,
            7.307783160761694
          ],
          [
            -75.38969419199992,
            7.293859373762123
          ],
          [
            -75.39516857799993,
            7.288275518762308
          ],
          [
            -75.40786352599991,
            7.275321323762699
          ],
          [
            -75.42198379199993,
            7.260861820763151
          ],
          [
            -75.45378024199994,
            7.228140146764238
          ],
          [
            -75.47301220499992,
            7.20574031876495
          ],
          [
            -75.48324415799993,
            7.192424335765332
          ],
          [
            -75.50716383499991,
            7.165815184766179
          ],
          [
            -75.53176312699992,
            7.134193682767242
          ],
          [
            -75.5447157289999,
            7.11662941576779
          ],
          [
            -75.55973141299995,
            7.098294892768353
          ],
          [
            -75.57567963799994,
            7.07909199976897
          ],
          [
            -75.5864496129999,
            7.066022938769376
          ],
          [
            -75.59801825699992,
            7.05198471476984
          ],
          [
            -75.61117887299991,
            7.0373646787703095
          ],
          [
            -75.61780917599992,
            7.031354670770521
          ],
          [
            -75.6271396439999,
            7.017914598770914
          ],
          [
            -75.6463706159999,
            6.990824463771806
          ],
          [
            -75.65055083699991,
            6.984144420772002
          ],
          [
            -75.66210147299995,
            6.962594267772722
          ],
          [
            -75.66590701599995,
            6.956739655772908
          ],
          [
            -75.67677222899994,
            6.940024141773441
          ],
          [
            -75.68938288599992,
            6.920244029774039
          ],
          [
            -75.70286360699993,
            6.896503865774799
          ],
          [
            -75.71181411499992,
            6.878753739775414
          ],
          [
            -75.7263408959999,
            6.856129820776132
          ],
          [
            -75.73813179299992,
            6.841037517776594
          ],
          [
            -75.74573528399992,
            6.826572338777045
          ],
          [
            -75.74627174499994,
            6.825551754777075
          ],
          [
            -75.74588074699994,
            6.816113867777387
          ],
          [
            -75.74175515799993,
            6.800261605777885
          ],
          [
            -75.74645181699992,
            6.766859024778994
          ],
          [
            -75.75665709799995,
            6.747142555779625
          ],
          [
            -75.76344749899994,
            6.7316924307800905
          ],
          [
            -75.77506812399992,
            6.7108622957807755
          ],
          [
            -75.78284849499994,
            6.7018122637810595
          ],
          [
            -75.7999942479999,
            6.687322262781512
          ],
          [
            -75.80870371499992,
            6.680242057781777
          ],
          [
            -75.81249872099994,
            6.677156975781832
          ],
          [
            -75.81501834099993,
            6.673118420781995
          ],
          [
            -75.81686008799994,
            6.670166389782087
          ]
        ]
      }
    },
    {
      "type": "Feature",
      "properties": {
        "Tipo": "Falla",
        "NombreFalla": "Falla de San Jerónimo"
      },
      "geometry": {
        "type": "LineString",
        "coordinates": [
          [
            -75.80870371499992,
            6.680242057781777
          ],
          [
            -75.80333920399994,
            6.673378188781967
          ],
          [
            -75.80048385099991,
            6.660172179782405
          ],
          [
            -75.79548698199994,
            6.6458954137828385
          ],
          [
            -75.7883485989999,
            6.634830920783204
          ],
          [
            -75.78228097399995,
            6.6244802647835215
          ],
          [
            -75.77549950999992,
            6.609846579784012
          ],
          [
            -75.7669334499999,
            6.591643702784575
          ],
          [
            -75.76050890599993,
            6.583077643784875
          ],
          [
            -75.7558689569999,
            6.578080775785058
          ],
          [
            -75.74908749299993,
            6.566659362785372
          ],
          [
            -75.74516138199994,
            6.557736383785685
          ],
          [
            -75.73873683799991,
            6.536321234786368
          ],
          [
            -75.73730916099993,
            6.517761438786982
          ],
          [
            -75.7329974239999,
            6.489070591787894
          ],
          [
            -75.72371893999991,
            6.466038709788642
          ],
          [
            -75.71798566299992,
            6.437937566789527
          ],
          [
            -75.7173390509999,
            6.434768255789611
          ],
          [
            -75.71219912399994,
            6.410407912790436
          ],
          [
            -75.71224204799995,
            6.410397232790443
          ],
          [
            -75.71301845399995,
            6.402246036790669
          ],
          [
            -75.71325927099991,
            6.3997177907907545
          ],
          [
            -75.71544556299995,
            6.391806006791019
          ],
          [
            -75.71682953499993,
            6.3867976717911725
          ],
          [
            -75.71522960899995,
            6.374047496791571
          ],
          [
            -75.71356978299991,
            6.352437220792275
          ],
          [
            -75.71508008399991,
            6.328396946793029
          ],
          [
            -75.71253828199991,
            6.305467830793769
          ],
          [
            -75.71111032099992,
            6.292586470794191
          ],
          [
            -75.7075403529999,
            6.277116250794694
          ],
          [
            -75.7008303959999,
            6.250165857795563
          ],
          [
            -75.68978025599995,
            6.2271754727962945
          ],
          [
            -75.6807001119999,
            6.210245175796851
          ]
        ]
      }
    },
    {
      "type": "Feature",
      "properties": {
        "Tipo": "Lineamiento",
        "NombreFalla": null
      },
      "geometry": {
        "type": "LineString",
        "coordinates": [
          [
            -75.25864172199994,
            6.580182034784961
          ],
          [
            -75.24639122199994,
            6.575541328785135
          ],
          [
            -75.22870080299992,
            6.564364635785448
          ],
          [
            -75.20347005499991,
            6.553404236785811
          ],
          [
            -75.17993927899994,
            6.550653945785914
          ],
          [
            -75.16011448799992,
            6.544098824786105
          ],
          [
            -75.14542822499993,
            6.538383434786307
          ],
          [
            -75.13283782399992,
            6.535143256786418
          ],
          [
            -75.11560722099995,
            6.536473086786345
          ],
          [
            -75.08501358799992,
            6.538144711786325
          ],
          [
            -75.06098535799993,
            6.535842496786413
          ],
          [
            -75.0322194869999,
            6.538840383786307
          ],
          [
            -75.02481408199992,
            6.539612150786283
          ],
          [
            -75.0048933299999,
            6.546292014786047
          ],
          [
            -74.9808559249999,
            6.540611847786247
          ],
          [
            -74.94213131099991,
            6.534591197786404
          ],
          [
            -74.89570619799991,
            6.5191969487869015
          ],
          [
            -74.86678402899992,
            6.5088700817872285
          ],
          [
            -74.84683842999993,
            6.501519782787473
          ],
          [
            -74.82615783799992,
            6.490469426787834
          ]
        ]
      }
    },
    {
      "type": "Feature",
      "properties": {
        "Tipo": "Falla",
        "NombreFalla": "Falla de Gaserón"
      },
      "geometry": {
        "type": "LineString",
        "coordinates": [
          [
            -75.7368055789999,
            6.823813306777161
          ],
          [
            -75.73218556099994,
            6.810313091777572
          ],
          [
            -75.72894577799991,
            6.780042669778541
          ],
          [
            -75.72392572299992,
            6.768612470778897
          ],
          [
            -75.71763566499993,
            6.7542422287793675
          ],
          [
            -75.71687586999991,
            6.732301937780109
          ],
          [
            -75.71504599299993,
            6.714851705780621
          ],
          [
            -75.71482631899994,
            6.684291315781604
          ],
          [
            -75.71818670099992,
            6.6593910407824035
          ],
          [
            -75.71992888799991,
            6.64900535778276
          ],
          [
            -75.7165269109999,
            6.634240709783248
          ],
          [
            -75.70281661599995,
            6.617210349783757
          ],
          [
            -75.69408641099994,
            6.607640138784086
          ],
          [
            -75.69013641099991,
            6.595359944784447
          ],
          [
            -75.69177660899993,
            6.581549792784932
          ],
          [
            -75.68541659999994,
            6.561659475785535
          ],
          [
            -75.68032657499992,
            6.547449250785995
          ],
          [
            -75.67730668099995,
            6.527958980786613
          ],
          [
            -75.6688166049999,
            6.507058633787333
          ],
          [
            -75.64442594299993,
            6.48923815978789
          ]
        ]
      }
    },
    {
      "type": "Feature",
      "properties": {
        "Tipo": "Falla",
        "NombreFalla": "Falla de La Trinidad"
      },
      "geometry": {
        "type": "LineString",
        "coordinates": [
          [
            -75.69161592699993,
            6.644900576782869
          ],
          [
            -75.69233573799994,
            6.664930833782255
          ],
          [
            -75.69475553899991,
            6.692031200781386
          ],
          [
            -75.69470516199993,
            6.726731628780278
          ],
          [
            -75.70197521799992,
            6.744561928779667
          ],
          [
            -75.69932502699993,
            6.754432033779351
          ],
          [
            -75.70309493199994,
            6.7749223267787135
          ],
          [
            -75.70215616699994,
            6.783288377778449
          ],
          [
            -75.70618478699993,
            6.79892266077794
          ],
          [
            -75.70668472599993,
            6.805522753777703
          ],
          [
            -75.70996465499991,
            6.823333013777168
          ],
          [
            -75.71126439999995,
            6.850883381776277
          ],
          [
            -75.71140880399992,
            6.858204630776074
          ],
          [
            -75.70631398199993,
            6.873143607775577
          ],
          [
            -75.69975366699992,
            6.881563642775285
          ],
          [
            -75.69540340399993,
            6.891193716775
          ],
          [
            -75.6911831459999,
            6.901863806774618
          ],
          [
            -75.68370272199991,
            6.9171839277741265
          ],
          [
            -75.67781239699991,
            6.927903999773821
          ],
          [
            -75.6723420699999,
            6.940524098773414
          ],
          [
            -75.66590701599995,
            6.956739655772908
          ]
        ]
      }
    },
    {
      "type": "Feature",
      "properties": {
        "Tipo": "Falla",
        "NombreFalla": "Falla de Río Chico"
      },
      "geometry": {
        "type": "LineString",
        "coordinates": [
          [
            -75.5228151899999,
            6.478619728788225
          ],
          [
            -75.53841564599992,
            6.476691562788311
          ],
          [
            -75.55516764399994,
            6.480126228788172
          ],
          [
            -75.56382464699993,
            6.485059492788001
          ],
          [
            -75.57508337899992,
            6.504647608787402
          ],
          [
            -75.59928395599991,
            6.529508169786567
          ],
          [
            -75.62483453099992,
            6.558568794785632
          ],
          [
            -75.63913478499995,
            6.581579230784945
          ],
          [
            -75.66117526499994,
            6.607799787784091
          ],
          [
            -75.67423558399992,
            6.620560086783662
          ],
          [
            -75.69161592699993,
            6.644900576782869
          ]
        ]
      }
    },
    {
      "type": "Feature",
      "properties": {
        "Tipo": "Falla",
        "NombreFalla": "Falla de Río Chico"
      },
      "geometry": {
        "type": "LineString",
        "coordinates": [
          [
            -75.47294219399993,
            6.444417647789328
          ],
          [
            -75.47829682899993,
            6.45082192478912
          ],
          [
            -75.48829392599993,
            6.4582946967888555
          ],
          [
            -75.49245971699992,
            6.461174754788782
          ],
          [
            -75.50515349499994,
            6.471274037788441
          ],
          [
            -75.5228151899999,
            6.478619728788225
          ]
        ]
      }
    },
    {
      "type": "Feature",
      "properties": {
        "Tipo": "Falla",
        "NombreFalla": "Falla de El Caserón"
      },
      "geometry": {
        "type": "LineString",
        "coordinates": [
          [
            -75.55477317099991,
            6.458526835788894
          ],
          [
            -75.5736737869999,
            6.461577074788797
          ],
          [
            -75.58814424499991,
            6.465827273788621
          ],
          [
            -75.59026430499995,
            6.466707307788624
          ],
          [
            -75.59952456999991,
            6.471967473788425
          ],
          [
            -75.6101149079999,
            6.475427622788347
          ],
          [
            -75.63545568099994,
            6.484913010788018
          ],
          [
            -75.64442594299993,
            6.48923815978789
          ],
          [
            -75.65305050099994,
            6.490245962787852
          ],
          [
            -75.66128651299994,
            6.4912083637877975
          ],
          [
            -75.6843372109999,
            6.500448712787541
          ],
          [
            -75.69217742799992,
            6.505578865787357
          ],
          [
            -75.70150764499994,
            6.516029083787036
          ]
        ]
      }
    },
    {
      "type": "Feature",
      "properties": {
        "Tipo": "Falla",
        "NombreFalla": null
      },
      "geometry": {
        "type": "LineString",
        "coordinates": [
          [
            -75.51203944199995,
            6.252367278795489
          ],
          [
            -75.50906824599991,
            6.241172050795886
          ],
          [
            -75.50465882899994,
            6.232679764796129
          ],
          [
            -75.50260708299993,
            6.218363825796615
          ],
          [
            -75.50487622799994,
            6.206136522796974
          ],
          [
            -75.50574968699993,
            6.201429885797159
          ],
          [
            -75.5053831319999,
            6.183838416797703
          ],
          [
            -75.50503819699992,
            6.1776960157979275
          ],
          [
            -75.50114013699994,
            6.170059616798137
          ],
          [
            -75.5033934619999,
            6.1542137307986815
          ],
          [
            -75.5030132409999,
            6.141037780799103
          ],
          [
            -75.5020536429999,
            6.1303492577994465
          ],
          [
            -75.50542519099992,
            6.119900592799776
          ],
          [
            -75.5076380559999,
            6.108658563800119
          ],
          [
            -75.51120144399994,
            6.103773272800286
          ]
        ]
      }
    },
    {
      "type": "Feature",
      "properties": {
        "Tipo": "Falla",
        "NombreFalla": "Falla de Rodas"
      },
      "geometry": {
        "type": "LineString",
        "coordinates": [
          [
            -75.52936366799992,
            6.311916328793559
          ],
          [
            -75.52906024299995,
            6.310379472793641
          ],
          [
            -75.52387113399993,
            6.295606219794125
          ],
          [
            -75.5197629409999,
            6.2805140657946055
          ],
          [
            -75.51450323299991,
            6.2679441107950105
          ],
          [
            -75.51203944199995,
            6.252367278795489
          ]
        ]
      }
    },
    {
      "type": "Feature",
      "properties": {
        "Tipo": "Falla de rumbo sinestral",
        "NombreFalla": "Falla de La Acuarela"
      },
      "geometry": {
        "type": "LineString",
        "coordinates": [
          [
            -75.58814424499991,
            6.465827273788621
          ],
          [
            -75.58139412399993,
            6.454627069789003
          ],
          [
            -75.57237412299992,
            6.425266622789958
          ],
          [
            -75.56159991899995,
            6.404903068790585
          ],
          [
            -75.55005175999992,
            6.381002819791347
          ],
          [
            -75.53908230699994,
            6.3593237587920575
          ],
          [
            -75.53509558299993,
            6.349894092792345
          ],
          [
            -75.53266241599994,
            6.328624588793054
          ],
          [
            -75.52936366799992,
            6.311916328793559
          ]
        ]
      }
    },
    {
      "type": "Feature",
      "properties": {
        "Tipo": "Falla",
        "NombreFalla": null
      },
      "geometry": {
        "type": "LineString",
        "coordinates": [
          [
            -75.54754306099994,
            6.1817717077977505
          ],
          [
            -75.54723746799993,
            6.182552668797757
          ],
          [
            -75.54901201599995,
            6.186263086797603
          ],
          [
            -75.55149902699992,
            6.19612334579734
          ],
          [
            -75.55238198099994,
            6.201406768797148
          ],
          [
            -75.55180384399995,
            6.205398055797043
          ],
          [
            -75.54795783199995,
            6.2105451597968235
          ],
          [
            -75.54571214299995,
            6.213161771796795
          ],
          [
            -75.5445414319999,
            6.215281634796683
          ],
          [
            -75.54479967799995,
            6.217613131796612
          ],
          [
            -75.54132707999992,
            6.225540915796359
          ],
          [
            -75.54116984299992,
            6.2325213497961425
          ],
          [
            -75.54081292299992,
            6.239659732795901
          ],
          [
            -75.5428404619999,
            6.24955057979559
          ],
          [
            -75.5445947739999,
            6.263112036795132
          ],
          [
            -75.5444184879999,
            6.285306145794412
          ],
          [
            -75.54547556299991,
            6.296083809794116
          ],
          [
            -75.5450341479999,
            6.304000693793856
          ],
          [
            -75.54688083299993,
            6.314367480793531
          ],
          [
            -75.54993636199993,
            6.324751366793199
          ]
        ]
      }
    },
    {
      "type": "Feature",
      "properties": {
        "Tipo": "Falla",
        "NombreFalla": null
      },
      "geometry": {
        "type": "LineString",
        "coordinates": [
          [
            -75.59026430499995,
            6.466707307788624
          ],
          [
            -75.58209739199992,
            6.439695334789477
          ],
          [
            -75.57328432299994,
            6.409876442790457
          ],
          [
            -75.57010543599995,
            6.396665844790878
          ],
          [
            -75.56944039599995,
            6.391936178791029
          ],
          [
            -75.5698125049999,
            6.377721839791449
          ],
          [
            -75.56951482099993,
            6.3702053577917255
          ],
          [
            -75.56866235699994,
            6.364567437791882
          ]
        ]
      }
    },
    {
      "type": "Feature",
      "properties": {
        "Tipo": "Falla",
        "NombreFalla": "Falla de Quirimará"
      },
      "geometry": {
        "type": "LineString",
        "coordinates": [
          [
            -75.7290741029999,
            5.983703006804181
          ],
          [
            -75.73942296299992,
            6.000878587803634
          ],
          [
            -75.74894080699994,
            6.0156312458031245
          ],
          [
            -75.75598432899994,
            6.033240049802569
          ],
          [
            -75.75561450399994,
            6.035073875802509
          ],
          [
            -75.75548934599993,
            6.050259050802015
          ],
          [
            -75.7538985409999,
            6.071379075801356
          ],
          [
            -75.7538190599999,
            6.07243429680132
          ],
          [
            -75.75419387199992,
            6.092544538800658
          ],
          [
            -75.7551933229999,
            6.095268230800593
          ],
          [
            -75.75506884499993,
            6.097919608800494
          ],
          [
            -75.75814357599995,
            6.134545072799312
          ],
          [
            -75.75609332399995,
            6.152405259798735
          ],
          [
            -75.75761306699991,
            6.182385634797756
          ],
          [
            -75.76315267299992,
            6.199736466797223
          ],
          [
            -75.76267303499992,
            6.202775935797112
          ],
          [
            -75.76244293099995,
            6.211866032796829
          ],
          [
            -75.76457293499993,
            6.218556137796581
          ],
          [
            -75.76593277799992,
            6.2382963907959486
          ],
          [
            -75.77380282799993,
            6.259926726795242
          ],
          [
            -75.77426267599992,
            6.276636936794748
          ],
          [
            -75.77102249799992,
            6.282516975794537
          ],
          [
            -75.77523252399993,
            6.294207156794165
          ],
          [
            -75.77556235899993,
            6.311317367793601
          ],
          [
            -75.77987237699995,
            6.32394756479322
          ],
          [
            -75.7856123329999,
            6.346977906792443
          ],
          [
            -75.79209240199992,
            6.36256815979197
          ],
          [
            -75.79913248999992,
            6.377528414791495
          ],
          [
            -75.80579260799993,
            6.387948611791135
          ],
          [
            -75.80752254799995,
            6.399998783790734
          ],
          [
            -75.80611243499993,
            6.406018834790547
          ],
          [
            -75.79980212099991,
            6.414548876790294
          ],
          [
            -75.79661195199992,
            6.4202989117901135
          ],
          [
            -75.7940517529999,
            6.431219021789727
          ],
          [
            -75.79541166799993,
            6.443449188789385
          ],
          [
            -75.80005154699995,
            6.470219567788495
          ],
          [
            -75.80055150399994,
            6.475769638788332
          ],
          [
            -75.80198143399991,
            6.487949805787934
          ],
          [
            -75.80476128799995,
            6.510660113787209
          ]
        ]
      }
    },
    {
      "type": "Feature",
      "properties": {
        "Tipo": "Falla",
        "NombreFalla": "Falla de Silvia-Pijao"
      },
      "geometry": {
        "type": "LineString",
        "coordinates": [
          [
            -75.77252052799992,
            6.47608934878831
          ],
          [
            -75.77006063599993,
            6.457599091788902
          ],
          [
            -75.76699282399994,
            6.44036429278946
          ],
          [
            -75.7661206969999,
            6.438718821789497
          ],
          [
            -75.76517076399995,
            6.429218697789803
          ],
          [
            -75.7632809239999,
            6.408078419790463
          ],
          [
            -75.75807095599993,
            6.387508113791161
          ],
          [
            -75.7540909519999,
            6.374827917791542
          ],
          [
            -75.75287108499992,
            6.357587692792135
          ],
          [
            -75.74967122299995,
            6.333727369792897
          ],
          [
            -75.74991134299995,
            6.323547247793212
          ],
          [
            -75.75521158299995,
            6.318307240793378
          ],
          [
            -75.75447170299992,
            6.30415705879386
          ],
          [
            -75.74928164199991,
            6.292336864794189
          ],
          [
            -75.74922250299994,
            6.285394754794456
          ],
          [
            -75.74916177999995,
            6.278266695794665
          ],
          [
            -75.74539183799993,
            6.260746448795231
          ],
          [
            -75.74279803299993,
            6.253327069795469
          ],
          [
            -75.73572178799992,
            6.233086018796101
          ],
          [
            -75.72732168699991,
            6.2144657037967335
          ],
          [
            -75.7167216069999,
            6.186855269797625
          ],
          [
            -75.71282173799995,
            6.160364917798481
          ],
          [
            -75.70682176399993,
            6.1376145797991795
          ],
          [
            -75.70162174899991,
            6.121554337799712
          ],
          [
            -75.6958031989999,
            6.112270623800022
          ],
          [
            -75.69445162099993,
            6.1101141308000635
          ],
          [
            -75.68341135299994,
            6.099133887800407
          ],
          [
            -75.66762111799994,
            6.068663365801425
          ],
          [
            -75.65991108399993,
            6.045483022802186
          ],
          [
            -75.65481124999991,
            6.012752582803217
          ],
          [
            -75.64949000399992,
            5.9871907948040475
          ],
          [
            -75.64590137199991,
            5.969952000804623
          ],
          [
            -75.64699149599994,
            5.961101905804891
          ],
          [
            -75.64142150099991,
            5.941561625805525
          ],
          [
            -75.6366614719999,
            5.928261421805929
          ],
          [
            -75.6344515799999,
            5.91044119980655
          ],
          [
            -75.62493140599992,
            5.894940922807053
          ],
          [
            -75.60843095299992,
            5.883340626807389
          ],
          [
            -75.59258060199994,
            5.863740240808036
          ],
          [
            -75.57710032099993,
            5.838829805808866
          ],
          [
            -75.58126056299994,
            5.829229734809151
          ],
          [
            -75.58237070099995,
            5.819779637809446
          ],
          [
            -75.58137087599994,
            5.798849394810115
          ],
          [
            -75.57468078099993,
            5.785189171810564
          ],
          [
            -75.56422062699994,
            5.764308830811227
          ],
          [
            -75.55519048299993,
            5.74775855681177
          ],
          [
            -75.55315574999992,
            5.735900551812184
          ],
          [
            -75.55030039699994,
            5.722099677812603
          ],
          [
            -75.55012752699992,
            5.721959220812627
          ]
        ]
      }
    },
    {
      "type": "Feature",
      "properties": {
        "Tipo": "Falla",
        "NombreFalla": null
      },
      "geometry": {
        "type": "LineString",
        "coordinates": [
          [
            -75.74922250299994,
            6.285394754794456
          ],
          [
            -75.7533919729999,
            6.274386692794778
          ],
          [
            -75.75218982099994,
            6.2626130297951725
          ],
          [
            -75.7542721609999,
            6.258846511795273
          ],
          [
            -75.75260216999993,
            6.252736427795476
          ],
          [
            -75.74917230299991,
            6.22796108979629
          ],
          [
            -75.7467923289999,
            6.217325939796645
          ],
          [
            -75.74608545399991,
            6.2045604497970634
          ],
          [
            -75.7470372379999,
            6.1902836837974995
          ],
          [
            -75.74370599299994,
            6.1826694087977625
          ],
          [
            -75.73704350199995,
            6.172199779798096
          ],
          [
            -75.73704350199995,
            6.1645855047983105
          ],
          [
            -75.73704350199995,
            6.145549816798945
          ],
          [
            -75.73418814899992,
            6.129845373799449
          ],
          [
            -75.72609798099995,
            6.112237362800026
          ],
          [
            -75.7199113819999,
            6.094153458800567
          ],
          [
            -75.71403663299992,
            6.0680638488014305
          ],
          [
            -75.71182284699995,
            6.0489535928020715
          ],
          [
            -75.70776286599994,
            6.03356336780253
          ],
          [
            -75.70526289999992,
            6.021793209802925
          ],
          [
            -75.69386286499991,
            5.985712672804107
          ],
          [
            -75.6827526639999,
            5.9683523528046445
          ]
        ]
      }
    },
    {
      "type": "Feature",
      "properties": {
        "Tipo": "Falla",
        "NombreFalla": null
      },
      "geometry": {
        "type": "LineString",
        "coordinates": [
          [
            -75.82112790699995,
            6.522337974786842
          ],
          [
            -75.80476128799995,
            6.510660113787209
          ],
          [
            -75.7810807269999,
            6.485279545788015
          ],
          [
            -75.77252052799992,
            6.47608934878831
          ],
          [
            -75.75873021199993,
            6.460509013788824
          ],
          [
            -75.74280975599993,
            6.45155872978907
          ],
          [
            -75.73639959399992,
            6.446058596789248
          ],
          [
            -75.72288918399994,
            6.439778375789462
          ],
          [
            -75.71798566299992,
            6.437937566789527
          ]
        ]
      }
    }
  ]
}